{
"type": "FeatureCollection",
"name": "delhi_boundary",
"crs": { "type": "name", "properties": { "name": "urn:ogc:def:crs:OGC:1.3:CRS84" } },
"features": [
{ "type": "Feature", "properties": { "grid_id": "DEL_00001", "longitude": 76.837540163860496, "latitude": 28.557527023007218 }, "geometry": { "type": "Polygon", "coordinates": [ [ [ 76.878358689763928, 28.525569350043064 ], [ 76.877904673602458, 28.526193626605021 ], [ 76.8763, 28.5284 ], [ 76.87409610798565, 28.530140220169468 ], [ 76.872882561869986, 28.531098412489097 ], [ 76.86827987710501, 28.534732353473235 ], [ 76.867843646423523, 28.535076748648788 ], [ 76.862804349882722, 28.53905491318794 ], [ 76.862463138479484, 28.539324258128328 ], [ 76.8592, 28.5419 ], [ 76.858355735817355, 28.543892536863162 ], [ 76.857802670763988, 28.545197777893527 ], [ 76.8567, 28.5478 ], [ 76.855360156631932, 28.548445506626713 ], [ 76.852771566543467, 28.54969257298503 ], [ 76.847704171206715, 28.55213359286876 ], [ 76.845720782382102, 28.55308893246708 ], [ 76.842636534076419, 28.554574433421813 ], [ 76.8376, 28.557 ], [ 76.837571115709366, 28.557156744839855 ], [ 76.83746862523499, 28.557712921220318 ], [ 76.836635051998471, 28.562236216366195 ], [ 76.835801418513512, 28.566759506800047 ], [ 76.834967724756552, 28.571282792518641 ], [ 76.834133970704087, 28.575806073518773 ], [ 76.833300156332541, 28.580329349797204 ], [ 76.8329, 28.5825 ], [ 76.833451929935165, 28.584839300034243 ], [ 76.834513175596413, 28.589336946600948 ], [ 76.835, 28.5914 ], [ 76.838161762415481, 28.591129728459524 ], [ 76.843266186564492, 28.590693237877112 ], [ 76.848370557269973, 28.590256556978126 ], [ 76.8502, 28.5901 ], [ 76.853508821341251, 28.591754437238549 ], [ 76.8548, 28.5924 ], [ 76.855394998763359, 28.593564813148969 ], [ 76.857683891193744, 28.598045434087812 ], [ 76.858768961597946, 28.600169356770397 ], [ 76.859972986954745, 28.602526004562602 ], [ 76.862262286108745, 28.607006524551654 ], [ 76.864064390365897, 28.610533211601599 ], [ 76.864551788718074, 28.611486994033289 ], [ 76.866841494845133, 28.615967412985839 ], [ 76.869131404552263, 28.620447781387604 ], [ 76.869360907966026, 28.620896796106123 ], [ 76.871421517901851, 28.624928099216902 ], [ 76.873711834956339, 28.629408366452044 ], [ 76.874658515170438, 28.63126011001555 ], [ 76.876002355778127, 28.633888583071336 ], [ 76.8779, 28.6376 ], [ 76.879874775442332, 28.637000191060842 ], [ 76.884961351598506, 28.635455056900557 ], [ 76.89004776845627, 28.633909738314916 ], [ 76.890794222471001, 28.633682936435353 ], [ 76.8937, 28.6328 ], [ 76.895141857581777, 28.632800011490335 ], [ 76.8973, 28.6328 ], [ 76.898321567003904, 28.633577665979875 ], [ 76.900296942055931, 28.635081360150377 ], [ 76.904, 28.6379 ], [ 76.905461536367113, 28.637876827117477 ], [ 76.9103, 28.6378 ], [ 76.910571010680869, 28.637615983386464 ], [ 76.91562286426965, 28.634185556800784 ], [ 76.916903320709082, 28.6333160079229 ], [ 76.920674384291573, 28.630754955762772 ], [ 76.923688243585673, 28.628707985070093 ], [ 76.9237, 28.6287 ], [ 76.923733757136645, 28.628707338828988 ], [ 76.92575886379521, 28.629147581169256 ], [ 76.926, 28.6292 ], [ 76.92969992400279, 28.633134330943054 ], [ 76.930970342154708, 28.63448514053972 ], [ 76.933887253598115, 28.63758644838115 ], [ 76.9339, 28.6376 ], [ 76.931079069892803, 28.640421392849607 ], [ 76.929337486292624, 28.642163160938654 ], [ 76.926056557843026, 28.645444227063241 ], [ 76.924760647965769, 28.646740115773518 ], [ 76.921033570082102, 28.650466894312441 ], [ 76.920183414599819, 28.651316931943366 ], [ 76.9182, 28.6533 ], [ 76.917751438746379, 28.655863236549997 ], [ 76.9175, 28.6573 ], [ 76.918939033965017, 28.660358247648123 ], [ 76.92104814268356, 28.664840168540611 ], [ 76.921305688773231, 28.665387431315086 ], [ 76.9231, 28.6692 ], [ 76.923253164812806, 28.669320685141809 ], [ 76.926540557189483, 28.671910850296651 ], [ 76.928878065025415, 28.673752462171311 ], [ 76.9297, 28.6744 ], [ 76.931704050143736, 28.674508828503686 ], [ 76.936825104083596, 28.674786787311984 ], [ 76.941946173144544, 28.675064550943496 ], [ 76.9426, 28.6751 ], [ 76.947099971410978, 28.677110630687672 ], [ 76.9473, 28.6772 ], [ 76.947134342190594, 28.678002839668672 ], [ 76.947117946684273, 28.678082297842327 ], [ 76.946200568782231, 28.682528055586801 ], [ 76.946, 28.6835 ], [ 76.947281016545858, 28.686894962298737 ], [ 76.947329554665117, 28.687023593512748 ], [ 76.949022927945904, 28.691510986705946 ], [ 76.95, 28.6941 ], [ 76.951240763337211, 28.695990787401932 ], [ 76.952604958582043, 28.698069574326492 ], [ 76.95417388638198, 28.700460210800937 ], [ 76.9542, 28.7005 ], [ 76.954564595825985, 28.704966324547406 ], [ 76.9546, 28.7054 ], [ 76.952770731343662, 28.706995674721586 ], [ 76.949846677574513, 28.709546185414069 ], [ 76.947734627890142, 28.711388311497828 ], [ 76.944586775233233, 28.714133687675979 ], [ 76.942698103016838, 28.715780778227895 ], [ 76.9413, 28.717 ], [ 76.942110190072285, 28.718681048180589 ], [ 76.942777316987502, 28.720065209900067 ], [ 76.944269848140664, 28.723161773709105 ], [ 76.946429700231974, 28.727642453057683 ], [ 76.948100239429351, 28.731107730031667 ], [ 76.948589746405887, 28.732123086207004 ], [ 76.9507, 28.7365 ], [ 76.950668546801097, 28.736604848553263 ], [ 76.949309142496503, 28.7411362066549 ], [ 76.9492, 28.7415 ], [ 76.950075102541007, 28.745636897690741 ], [ 76.9503, 28.7467 ], [ 76.948426675505701, 28.748697449228732 ], [ 76.947024345241047, 28.750192632197983 ], [ 76.94340626903562, 28.754050017991407 ], [ 76.942734549473911, 28.754766126549878 ], [ 76.93844438340416, 28.759339499635352 ], [ 76.938385355387197, 28.759402420673247 ], [ 76.9382, 28.7596 ], [ 76.938395190969572, 28.759934667256108 ], [ 76.94066103893114, 28.763819418226195 ], [ 76.943270953316386, 28.7682936338039 ], [ 76.943683300843333, 28.769000485235434 ], [ 76.945881099227023, 28.772767785445374 ], [ 76.9466, 28.774 ], [ 76.944695323368023, 28.77729659621021 ], [ 76.944, 28.7785 ], [ 76.943872385086081, 28.779198177216912 ], [ 76.94339185138962, 28.781827091363567 ], [ 76.942564939176918, 28.786350718893729 ], [ 76.9423, 28.7878 ], [ 76.942635481504084, 28.790861429321929 ], [ 76.9431, 28.7951 ], [ 76.942920650443824, 28.795369047690595 ], [ 76.939883823157871, 28.799924449460345 ], [ 76.939155180185665, 28.801017386593422 ], [ 76.9375, 28.8035 ], [ 76.93748297030379, 28.80447066003552 ], [ 76.937403797766052, 28.808983518893186 ], [ 76.9374, 28.8092 ], [ 76.939218889133315, 28.813469163771241 ], [ 76.939393431228012, 28.81387881497853 ], [ 76.941129596248103, 28.817953400702439 ], [ 76.9423, 28.8207 ], [ 76.944620988784393, 28.819519886411843 ], [ 76.947893387680921, 28.817855914933123 ], [ 76.9482, 28.8177 ], [ 76.948677718282141, 28.817844588519783 ], [ 76.949718644940972, 28.818159633025086 ], [ 76.95487070067162, 28.81971879361301 ], [ 76.9558, 28.82 ], [ 76.956279740169478, 28.822246259589065 ], [ 76.957240410159315, 28.826744008055851 ], [ 76.958, 28.8303 ], [ 76.959835973430145, 28.831217997813216 ], [ 76.960212692925793, 28.831406354611477 ], [ 76.9608, 28.8317 ], [ 76.96155283886543, 28.831193039419073 ], [ 76.965285015273437, 28.828679666220495 ], [ 76.968400219144826, 28.826581616014945 ], [ 76.970344247146613, 28.825272260836179 ], [ 76.9706, 28.8251 ], [ 76.9737, 28.8258 ], [ 76.974078118726368, 28.826498639580809 ], [ 76.975541722098711, 28.829202794415341 ], [ 76.976500863020007, 28.830974813563937 ], [ 76.978923824093016, 28.835450931131465 ], [ 76.9796, 28.8367 ], [ 76.980821391176974, 28.837451650116684 ], [ 76.9835, 28.8391 ], [ 76.985977283120349, 28.839139990449912 ], [ 76.9897, 28.8392 ], [ 76.991096187640267, 28.838877893012125 ], [ 76.99619758865434, 28.837700837987875 ], [ 77.001298863368078, 28.836523595323158 ], [ 77.006400011742585, 28.835346165046882 ], [ 77.0066, 28.8353 ], [ 77.011536814389402, 28.836028524277779 ], [ 77.01667513578235, 28.836786580120911 ], [ 77.0188, 28.8371 ], [ 77.021803555416426, 28.837029157907406 ], [ 77.026924942803888, 28.836908210107829 ], [ 77.0315, 28.8368 ], [ 77.032075423158645, 28.838285201972983 ], [ 77.032417048594709, 28.839166934752232 ], [ 77.034154992576376, 28.843652288732859 ], [ 77.035893096761882, 28.848137610050305 ], [ 77.037470590086116, 28.852208075558931 ], [ 77.037631361200923, 28.852622898691919 ], [ 77.0377, 28.8528 ], [ 77.040246976815894, 28.857094880234243 ], [ 77.042773900684253, 28.861355522419267 ], [ 77.042898886832617, 28.861566250411673 ], [ 77.045551033042742, 28.866037554219083 ], [ 77.048074020020636, 28.870290674750915 ], [ 77.048203415516753, 28.870508791627572 ], [ 77.0498, 28.8732 ], [ 77.05325570457444, 28.873156691618547 ], [ 77.058379888179957, 28.873092309970165 ], [ 77.06350405276298, 28.8730277336639 ], [ 77.0657, 28.873 ], [ 77.066791427571971, 28.874736469648049 ], [ 77.068724282670345, 28.877811482770493 ], [ 77.069600149877601, 28.879204841987629 ], [ 77.0701, 28.88 ], [ 77.073952829474237, 28.882989338237078 ], [ 77.074787027514688, 28.883636538313176 ], [ 77.0759, 28.8845 ], [ 77.076575077351819, 28.88360898770204 ], [ 77.079026610489137, 28.880373140678881 ], [ 77.080033412192478, 28.879044167136986 ], [ 77.0834, 28.8746 ], [ 77.084035369830858, 28.874513217194341 ], [ 77.08438509001158, 28.874465448884163 ], [ 77.089146861794433, 28.873814944133457 ], [ 77.094258272820284, 28.873116480488818 ], [ 77.099369602862225, 28.872417826278081 ], [ 77.0995, 28.8724 ], [ 77.103952865680839, 28.869649884024884 ], [ 77.104433167090306, 28.869353230073614 ], [ 77.109495176090675, 28.866226523557796 ], [ 77.1097, 28.8661 ], [ 77.114613928013938, 28.865917288194815 ], [ 77.119735048561779, 28.865726681470594 ], [ 77.124856137361022, 28.865535880990162 ], [ 77.1285, 28.8654 ], [ 77.12912843056921, 28.864743055547915 ], [ 77.129947456550809, 28.863886851609688 ], [ 77.133510014195963, 28.860162366443074 ], [ 77.134965087437024, 28.858641056838529 ], [ 77.1351, 28.8585 ], [ 77.135348119514035, 28.855621863246252 ], [ 77.1356, 28.8527 ], [ 77.135242704746133, 28.851112136420937 ], [ 77.134768147587693, 28.84900305835037 ], [ 77.134231239651058, 28.846616752731229 ], [ 77.1338, 28.8447 ], [ 77.134670376160472, 28.84421648328205 ], [ 77.138594859977076, 28.842036207737454 ], [ 77.1392, 28.8417 ], [ 77.139745660889815, 28.842017949786111 ], [ 77.139749299651086, 28.842020070032479 ], [ 77.144935074218182, 28.84504154199487 ], [ 77.147283136911796, 28.846409504574439 ], [ 77.150121141184641, 28.848062797306984 ], [ 77.1507, 28.8484 ], [ 77.153459497977437, 28.850822361609602 ], [ 77.155336085570667, 28.852469579918132 ], [ 77.158507287703614, 28.855252990713481 ], [ 77.160555069889583, 28.857050235453258 ], [ 77.163555505784032, 28.859683405263084 ], [ 77.1646, 28.8606 ], [ 77.165755285370508, 28.860703446238507 ], [ 77.17088947950856, 28.861163047695374 ], [ 77.176023705548673, 28.861622451005083 ], [ 77.181157963441109, 28.862081656157592 ], [ 77.1836, 28.8623 ], [ 77.184738828382834, 28.86385300402824 ], [ 77.186366186795013, 28.866072106640495 ], [ 77.1869, 28.8668 ], [ 77.191485369047754, 28.865801204111733 ], [ 77.196586835188214, 28.864689787573546 ], [ 77.201688180057673, 28.86357818347707 ], [ 77.201693238983765, 28.863577081009989 ], [ 77.2048, 28.8629 ], [ 77.206749387558006, 28.860572526695087 ], [ 77.208099068969418, 28.858960999299004 ], [ 77.2115, 28.8549 ], [ 77.211452626434607, 28.854394742981786 ], [ 77.21103032092762, 28.849890395197122 ], [ 77.2106080653557, 28.845386041327668 ], [ 77.2106, 28.8453 ], [ 77.211521538915704, 28.843924694908502 ], [ 77.213597952857882, 28.840825706361652 ], [ 77.216488087579265, 28.836511922806423 ], [ 77.216654031861538, 28.836264224170428 ], [ 77.2173, 28.8353 ], [ 77.216697726092789, 28.831752229164074 ], [ 77.216342888515499, 28.829661874718905 ], [ 77.215934088411359, 28.827253498587019 ], [ 77.215170529752783, 28.822754757329808 ], [ 77.214407050093612, 28.81825600539517 ], [ 77.213643649410429, 28.813757242785819 ], [ 77.2136, 28.8135 ], [ 77.210884010073329, 28.813771766112058 ], [ 77.210516718847302, 28.813808513555546 ], [ 77.205772523817046, 28.81428307807241 ], [ 77.200660974211814, 28.814794198913813 ], [ 77.195549361305595, 28.815305128623031 ], [ 77.1946, 28.8154 ], [ 77.194579667285311, 28.814068699448502 ], [ 77.194510796366799, 28.80955849412771 ], [ 77.194441944914615, 28.805048285658149 ], [ 77.1944, 28.8023 ], [ 77.195033122740853, 28.800527340409349 ], [ 77.195227978339005, 28.799981759135022 ], [ 77.196653713584737, 28.795989641447324 ], [ 77.1969, 28.7953 ], [ 77.200181100863318, 28.791962436283214 ], [ 77.200722161763792, 28.791412037544326 ], [ 77.2027, 28.7894 ], [ 77.205228172408866, 28.788441079195596 ], [ 77.2085, 28.7872 ], [ 77.210323962615689, 28.787245133624314 ], [ 77.215447596376009, 28.787371784637681 ], [ 77.2205712288537, 28.787498240373445 ], [ 77.2247, 28.7876 ], [ 77.22397967430139, 28.786519547847075 ], [ 77.2221, 28.7837 ], [ 77.220476969722611, 28.783050817326998 ], [ 77.218111916762027, 28.782104788379893 ], [ 77.2171, 28.7817 ], [ 77.220393806832845, 28.779126109626262 ], [ 77.222446187963797, 28.777522209545797 ], [ 77.225430758887711, 28.775189680879478 ], [ 77.228342732193752, 28.772913731157669 ], [ 77.229, 28.7724 ], [ 77.230446595743203, 28.770278576774732 ], [ 77.231764405070635, 28.768345934455191 ], [ 77.234875376929011, 28.763783201407289 ], [ 77.235411434182708, 28.762996943703715 ], [ 77.23798608690322, 28.759220408741619 ], [ 77.238, 28.7592 ], [ 77.240441597490261, 28.758804770707197 ], [ 77.245543420505783, 28.757978771544106 ], [ 77.2485, 28.7575 ], [ 77.250607389500871, 28.755392679918067 ], [ 77.251515766464138, 28.754484298070516 ], [ 77.2532, 28.7528 ], [ 77.252693046175452, 28.749953407450395 ], [ 77.2519, 28.7455 ], [ 77.251934722630452, 28.745454782627768 ], [ 77.255415641178786, 28.740921542645641 ], [ 77.255443708311418, 28.74088498863787 ], [ 77.2562, 28.7399 ], [ 77.2599, 28.7381 ], [ 77.260475772576399, 28.738206310396659 ], [ 77.265614711375733, 28.7391550419539 ], [ 77.2664, 28.7393 ], [ 77.270714502589755, 28.738290229719933 ], [ 77.2711, 28.7382 ], [ 77.274371764331107, 28.736056492726853 ], [ 77.275764740047649, 28.735143830991269 ], [ 77.2769, 28.7344 ], [ 77.278994901614269, 28.731467377667091 ], [ 77.280749795820782, 28.729010583605181 ], [ 77.282256521437503, 28.726901113262535 ], [ 77.2844, 28.7239 ], [ 77.284467872551843, 28.722352531663702 ], [ 77.284665881451247, 28.717837957737338 ], [ 77.284863887413977, 28.713323381708733 ], [ 77.2849, 28.7125 ], [ 77.28550409217452, 28.712296139838841 ], [ 77.290583873237679, 28.710581754504968 ], [ 77.2929, 28.7098 ], [ 77.295733518363875, 28.712073572101978 ], [ 77.29703420461064, 28.713117167759609 ], [ 77.300942143522917, 28.716252463561002 ], [ 77.3015, 28.7167 ], [ 77.305209302751976, 28.71748922877239 ], [ 77.306090717842025, 28.717676750582289 ], [ 77.3062, 28.7177 ], [ 77.308819197975197, 28.717427627491595 ], [ 77.311197168345174, 28.717180295563701 ], [ 77.316302795181045, 28.716649116689617 ], [ 77.321408356321257, 28.716117747786289 ], [ 77.3235, 28.7159 ], [ 77.322531760463491, 28.712681584458149 ], [ 77.321237401156793, 28.708378789334567 ], [ 77.321181695126455, 28.70819359836171 ], [ 77.319831758341948, 28.703705589417769 ], [ 77.3198, 28.7036 ], [ 77.3209, 28.6997 ], [ 77.32104206759324, 28.699532502487582 ], [ 77.321350935372692, 28.699168345521009 ], [ 77.325233531467447, 28.694590478997881 ], [ 77.326028465882459, 28.693653132866622 ], [ 77.3276, 28.6918 ], [ 77.327466725694364, 28.690040900766725 ], [ 77.327125421969626, 28.685535600017182 ], [ 77.3271, 28.6852 ], [ 77.325795746354871, 28.683128553663764 ], [ 77.3254, 28.6825 ], [ 77.3221421092898, 28.681110043829708 ], [ 77.32062125567434, 28.68046114172796 ], [ 77.3179, 28.6793 ], [ 77.317655366213756, 28.676675780125922 ], [ 77.31723553590092, 28.672171773039651 ], [ 77.31681575569246, 28.667667759832863 ], [ 77.316396025574917, 28.663163740506633 ], [ 77.315976345534779, 28.658659715062011 ], [ 77.315556715558571, 28.654155683500079 ], [ 77.3153, 28.6514 ], [ 77.314850292879285, 28.650654196915657 ], [ 77.314254877576289, 28.649666728581469 ], [ 77.311562640786462, 28.645201496461947 ], [ 77.3112, 28.6446 ], [ 77.31465078284856, 28.641571993837864 ], [ 77.315736823931701, 28.640618958204122 ], [ 77.319667538340767, 28.637169422477271 ], [ 77.320979494430347, 28.636017996805524 ], [ 77.321, 28.636 ], [ 77.324715501916216, 28.634201038718171 ], [ 77.329774636489844, 28.631751265325711 ], [ 77.3305, 28.6314 ], [ 77.33054837044412, 28.631342481268003 ], [ 77.3342, 28.627 ], [ 77.334332998150188, 28.626766118050533 ], [ 77.334760740844587, 28.626013910001664 ], [ 77.336923585235439, 28.622210261472102 ], [ 77.3371, 28.6219 ], [ 77.336809265140815, 28.61770103990871 ], [ 77.336497323534275, 28.613195223034662 ], [ 77.3362, 28.6089 ], [ 77.335709025295358, 28.608697612800405 ], [ 77.334365297436889, 28.608143694407751 ], [ 77.329206365578898, 28.606016870103893 ], [ 77.325204904029377, 28.60436702530723 ], [ 77.324047630348744, 28.603889836608559 ], [ 77.318889091765868, 28.601762593972378 ], [ 77.314701598005627, 28.600035570710762 ], [ 77.313730749849654, 28.59963514224599 ], [ 77.308572604619485, 28.59750748148004 ], [ 77.3071, 28.5969 ], [ 77.306134664439057, 28.595670335979456 ], [ 77.303343441342662, 28.592114607068247 ], [ 77.30264002159069, 28.591218473442229 ], [ 77.299145680749817, 28.586766501165513 ], [ 77.298086436390477, 28.58541687101371 ], [ 77.295651641832805, 28.582314419198912 ], [ 77.2936, 28.5797 ], [ 77.293628651811289, 28.577837361312685 ], [ 77.29369807006313, 28.573324894245935 ], [ 77.293767496536319, 28.568812424722445 ], [ 77.2938, 28.5667 ], [ 77.294413418507233, 28.564290203655968 ], [ 77.2952, 28.5612 ], [ 77.296272550741122, 28.559747450675207 ], [ 77.297492501232824, 28.558095222954833 ], [ 77.29964561829965, 28.555179025651878 ], [ 77.302455795107846, 28.551372623852632 ], [ 77.303018402654857, 28.55061053064022 ], [ 77.3031, 28.5505 ], [ 77.307470437532444, 28.547032722539242 ], [ 77.308770175402543, 28.546001509741647 ], [ 77.312492434595129, 28.543048093397729 ], [ 77.314580431789224, 28.541391265032559 ], [ 77.317514050554578, 28.539063298033263 ], [ 77.320390178059299, 28.536780797864612 ], [ 77.3215, 28.5359 ], [ 77.322525946193409, 28.534652647096888 ], [ 77.32454442933701, 28.532198457296378 ], [ 77.32750139897162, 28.528602953706258 ], [ 77.328307516777272, 28.527622710267977 ], [ 77.332070285758832, 28.523046874995476 ], [ 77.332476295038944, 28.522553106039759 ], [ 77.334, 28.5207 ], [ 77.335242617576938, 28.518481101030471 ], [ 77.3368, 28.5157 ], [ 77.337036561875905, 28.513938988312646 ], [ 77.337343637914358, 28.51165299187786 ], [ 77.33764394952091, 28.509417282777125 ], [ 77.3377, 28.509 ], [ 77.337291041691046, 28.509268387449492 ], [ 77.33704854620251, 28.509427529004498 ], [ 77.3345, 28.5111 ], [ 77.33219836202224, 28.509928303671654 ], [ 77.331405204651645, 28.509524514985177 ], [ 77.329, 28.5083 ], [ 77.327457510203388, 28.505080947974886 ], [ 77.326961981315748, 28.504046769714325 ], [ 77.3267, 28.5035 ], [ 77.323214924251687, 28.500642293299979 ], [ 77.321754210029113, 28.499444455037874 ], [ 77.3217, 28.4994 ], [ 77.316580735438421, 28.496391059378961 ], [ 77.316338081460898, 28.496248425734034 ], [ 77.311407828994135, 28.49335020646334 ], [ 77.308879933565052, 28.49186406260359 ], [ 77.3069, 28.4907 ], [ 77.306244249137279, 28.490724769349065 ], [ 77.301142059219401, 28.490917383539276 ], [ 77.2963, 28.4911 ], [ 77.296042386642696, 28.491227595350022 ], [ 77.294257248589659, 28.492111749160212 ], [ 77.290990028397758, 28.493729861088912 ], [ 77.28593742206526, 28.49623195167074 ], [ 77.2858, 28.4963 ], [ 77.283653945092809, 28.496801724455153 ], [ 77.280857068122501, 28.497455546916957 ], [ 77.2781, 28.4981 ], [ 77.275756252727049, 28.497731740085296 ], [ 77.27116990484123, 28.497010986965432 ], [ 77.2711, 28.497 ], [ 77.27062587906056, 28.496629372861911 ], [ 77.265465117184647, 28.492594844399992 ], [ 77.265432416717204, 28.492569278482371 ], [ 77.260239349166937, 28.48850896064199 ], [ 77.2601, 28.4884 ], [ 77.259638199732819, 28.488180471214871 ], [ 77.255079944419535, 28.486013448689576 ], [ 77.254, 28.4855 ], [ 77.249955984203027, 28.485178020673057 ], [ 77.244841152276592, 28.484770608051431 ], [ 77.2427, 28.4846 ], [ 77.241953110267687, 28.483961959478584 ], [ 77.239676828019057, 28.482017338928014 ], [ 77.23677234440639, 28.479535881673133 ], [ 77.234477198092279, 28.477574882292426 ], [ 77.2324, 28.4758 ], [ 77.231853305859858, 28.47510528947441 ], [ 77.229249958774119, 28.471796926792315 ], [ 77.228348536582999, 28.470651326030957 ], [ 77.2276, 28.4697 ], [ 77.226423769913026, 28.466171394038184 ], [ 77.2257, 28.464 ], [ 77.226141848531654, 28.46166453973008 ], [ 77.2264, 28.4603 ], [ 77.229001240376704, 28.459950620320097 ], [ 77.2331, 28.4594 ], [ 77.234077151043124, 28.458566605373409 ], [ 77.235922597082904, 28.456992604636991 ], [ 77.239091927786177, 28.454289287193376 ], [ 77.2399, 28.4536 ], [ 77.240566251936684, 28.452404723523923 ], [ 77.243104126344988, 28.447851440324783 ], [ 77.2433, 28.4475 ], [ 77.243971054802131, 28.44360793840416 ], [ 77.244019856284339, 28.443324884945298 ], [ 77.2443, 28.4417 ], [ 77.24390333664995, 28.438815353611567 ], [ 77.243863797866567, 28.438527805561439 ], [ 77.243284431682227, 28.434314103298902 ], [ 77.2432, 28.4337 ], [ 77.241108332626851, 28.429838501290401 ], [ 77.2406, 28.4289 ], [ 77.238534409014306, 28.427822609504439 ], [ 77.233975086559568, 28.425444320369603 ], [ 77.233374410445805, 28.425130968435951 ], [ 77.228214664064708, 28.422439115915925 ], [ 77.225590975384591, 28.421070199463188 ], [ 77.223055169870605, 28.419747052008809 ], [ 77.217895927862997, 28.417054776779075 ], [ 77.217207530077289, 28.41669552050211 ], [ 77.2153, 28.4157 ], [ 77.212751792722798, 28.415076577756661 ], [ 77.207622846904556, 28.413821604675825 ], [ 77.2059, 28.4134 ], [ 77.202508610144079, 28.413271826890817 ], [ 77.197401781085176, 28.413078660489642 ], [ 77.192294957036907, 28.412885301346677 ], [ 77.187188138049024, 28.412691749465505 ], [ 77.186778575372756, 28.412676218407245 ], [ 77.182081324171293, 28.412498004849738 ], [ 77.1795, 28.4124 ], [ 77.176961698328739, 28.41167754593198 ], [ 77.171829069569313, 28.410216513681007 ], [ 77.166696569687218, 28.408755279792658 ], [ 77.1658, 28.4085 ], [ 77.161688292192409, 28.413076955343499 ], [ 77.161681810223143, 28.413084170368197 ], [ 77.157576235503115, 28.417653802824699 ], [ 77.156691486964533, 28.418638490694281 ], [ 77.1543, 28.4213 ], [ 77.153983795012863, 28.422222314260424 ], [ 77.152428528104807, 28.426758534327675 ], [ 77.1519, 28.4283 ], [ 77.15178555510812, 28.428389156296554 ], [ 77.147997336946418, 28.431340167388804 ], [ 77.146760914700963, 28.432303280387337 ], [ 77.1424, 28.4357 ], [ 77.141728070776566, 28.435828558118487 ], [ 77.141032927208826, 28.435961553988964 ], [ 77.13664358321877, 28.436801240938216 ], [ 77.131558990097744, 28.437773738503044 ], [ 77.126474291455168, 28.438746050789003 ], [ 77.1241, 28.4392 ], [ 77.121408780862751, 28.440684863864401 ], [ 77.121230213762573, 28.440783383915758 ], [ 77.1183, 28.4424 ], [ 77.116389784411467, 28.444969057107564 ], [ 77.116087840759675, 28.445375129247079 ], [ 77.112693682942066, 28.449939551244871 ], [ 77.1125, 28.4502 ], [ 77.111440084348231, 28.452760414923802 ], [ 77.11072749098949, 28.454481742914009 ], [ 77.108847575070371, 28.459022571925697 ], [ 77.106967509713868, 28.463563380628582 ], [ 77.106568542196797, 28.464526933814792 ], [ 77.106, 28.4659 ], [ 77.104375570109639, 28.46811518660736 ], [ 77.1027, 28.4704 ], [ 77.102255491711603, 28.472659652956398 ], [ 77.10168179039681, 28.475575936936202 ], [ 77.1015, 28.4765 ], [ 77.101711866109497, 28.477094701410472 ], [ 77.101741990878125, 28.477179260046235 ], [ 77.103340582127544, 28.481666196760141 ], [ 77.104939320224403, 28.486153104758554 ], [ 77.106538205214292, 28.4906399840307 ], [ 77.107119338919119, 28.492270684218145 ], [ 77.1077, 28.4939 ], [ 77.107158879093333, 28.494260817032639 ], [ 77.105805859161222, 28.49516298515616 ], [ 77.102118581523868, 28.497621450095227 ], [ 77.098878122512019, 28.499781830371841 ], [ 77.097077958839122, 28.500981911354298 ], [ 77.092037011003114, 28.50434220073074 ], [ 77.091949771658108, 28.504400350944959 ], [ 77.0903, 28.5055 ], [ 77.08752892820209, 28.508980025801733 ], [ 77.087033156240167, 28.509602607862281 ], [ 77.086, 28.5109 ], [ 77.082159955976934, 28.513574105838924 ], [ 77.082005599876297, 28.51368159043178 ], [ 77.076966479007922, 28.517190330709802 ], [ 77.075534716986098, 28.518187192441253 ], [ 77.0725, 28.5203 ], [ 77.071920125272001, 28.520346399526009 ], [ 77.0675, 28.5207 ], [ 77.066810071944062, 28.520253243027977 ], [ 77.063893562497853, 28.518364599182931 ], [ 77.061636637188215, 28.516902989767338 ], [ 77.057086701999765, 28.513956157013421 ], [ 77.057, 28.5139 ], [ 77.056599299030722, 28.513963537897524 ], [ 77.056471892213551, 28.513983740136183 ], [ 77.051379565993557, 28.514791100708084 ], [ 77.0488, 28.5152 ], [ 77.046305245919882, 28.516535292086033 ], [ 77.042276666277658, 28.518691385152152 ], [ 77.0417, 28.519 ], [ 77.041253928578826, 28.519482431061956 ], [ 77.037750610693877, 28.523271111304751 ], [ 77.036249704038497, 28.5248941677884 ], [ 77.033519614678411, 28.527846279246095 ], [ 77.0331, 28.5283 ], [ 77.031219860597872, 28.528996454667261 ], [ 77.026147084913575, 28.530875376147794 ], [ 77.021665683362016, 28.532535047492409 ], [ 77.021074118959604, 28.532754116630922 ], [ 77.0196, 28.5333 ], [ 77.015975588395762, 28.533300003680523 ], [ 77.0157, 28.5333 ], [ 77.011765416102861, 28.537193876791246 ], [ 77.01095580524597, 28.537995063509797 ], [ 77.007136743979387, 28.541774166217547 ], [ 77.0061, 28.5428 ], [ 77.005937245413179, 28.542777935216975 ], [ 77.000814681193376, 28.542083359251304 ], [ 77.0002, 28.542 ], [ 77.000097191864612, 28.54187807247801 ], [ 76.996339747628284, 28.537421591464451 ], [ 76.9959, 28.5369 ], [ 76.997863635275095, 28.532887380666832 ], [ 76.9982, 28.5322 ], [ 77.000600079917234, 28.53072740648707 ], [ 77.004594542612438, 28.528276383018753 ], [ 77.005650243206773, 28.527628561943203 ], [ 77.010700104550835, 28.524529542994486 ], [ 77.0114, 28.5241 ], [ 77.011364300086257, 28.52366449380543 ], [ 77.01099492679927, 28.519158182934952 ], [ 77.0109, 28.518 ], [ 77.010572027660146, 28.517781365346341 ], [ 77.005980787339425, 28.514720544190229 ], [ 77.0055, 28.5144 ], [ 77.005400484442575, 28.514435520462353 ], [ 77.004542446930998, 28.514741779078992 ], [ 77.000326603721348, 28.516246433894839 ], [ 76.995252539291116, 28.518057165910424 ], [ 76.991355877955897, 28.519447561861426 ], [ 76.990178291175724, 28.51986771646558 ], [ 76.985103859399004, 28.521678085516772 ], [ 76.980029243984845, 28.523488273020472 ], [ 76.978168068518926, 28.524152118858037 ], [ 76.97495444495712, 28.52529827893316 ], [ 76.969879462339733, 28.527108103211312 ], [ 76.9685, 28.5276 ], [ 76.964738991546525, 28.525397439852661 ], [ 76.962988766179095, 28.524372386108539 ], [ 76.959574368724816, 28.522372551442995 ], [ 76.95547103835905, 28.519968983968422 ], [ 76.954410034083111, 28.519347450789283 ], [ 76.949245987606659, 28.516322137964394 ], [ 76.947953921157051, 28.515565132213624 ], [ 76.9446, 28.5136 ], [ 76.944090229752263, 28.513732726408424 ], [ 76.93900631236356, 28.515056280116934 ], [ 76.936417819729698, 28.515730087021769 ], [ 76.933922257097976, 28.516379649363909 ], [ 76.928838063991094, 28.517702834117191 ], [ 76.923753733078527, 28.519025834344625 ], [ 76.9227, 28.5193 ], [ 76.918627425691156, 28.518038268392132 ], [ 76.913490295227902, 28.516446503526993 ], [ 76.912281888675494, 28.516072037029275 ], [ 76.9085, 28.5149 ], [ 76.908354816858477, 28.514938282299614 ], [ 76.903591811314556, 28.516194104972051 ], [ 76.903270641488618, 28.516278778202519 ], [ 76.898186326831095, 28.517619089582642 ], [ 76.8975, 28.5178 ], [ 76.895089020713982, 28.516313003916245 ], [ 76.893031928289787, 28.515044202169889 ], [ 76.887935774816228, 28.511900652923451 ], [ 76.88786688940877, 28.511858158465156 ], [ 76.8868, 28.5112 ], [ 76.882726528087119, 28.5100440759471 ], [ 76.8794, 28.5091 ], [ 76.877631400404951, 28.510773932803865 ], [ 76.876270137114332, 28.512062282496522 ], [ 76.8738, 28.5144 ], [ 76.875100450495736, 28.516590417773934 ], [ 76.877757619237642, 28.521065687387622 ], [ 76.877815498294026, 28.521163163641223 ], [ 76.8795, 28.524 ], [ 76.878358689763928, 28.525569350043064 ] ] ] } }
]
}
